TEVEL2-6                
1 63215U 25052F   26068.64958975  .00021046  00000+0  70909-3 0  9996
2 63215  97.4016 325.0381 0004769  95.6604 264.5181 15.30760889 54861
STARLINK-35401          
1 66067U 25235K   26068.71129557  .00020382  00000+0  69840-3 0  9995
2 66067  53.1580 245.2487 0000985  61.4112 298.6988 15.30199024 22893
